S-NET D
1 43186U 18014G   25095.28803857  .00013845  00000-0  83316-3 0  9993
2 43186  97.5669 358.8804 0011131  89.3486 270.9019 15.10893073392512
TEN-KOH
1 43677U 18084G   25095.03909040  .00006497  00000-0  52541-3 0  9990
2 43677  98.0960 264.6836 0010335 132.6568 227.5527 15.00110119350411
STARS-AO
1 43679U 18084J   25095.04676374  .00015361  00000-0  94704-3 0  9991
2 43679  98.0758 278.4374 0002561 196.4474 163.6671 15.10048279351198
KAIDUN-1
1 41915U 17002C   25095.58592865  .00073539  00000-0  11439-2 0  9996
2 41915  97.1650 124.1053 0002174 214.6292 145.4821 15.53669770455868
CAS-4B (ZHUHAI-1 02)
1 42759U 17034B   25095.18586990  .00096111  00000-0  14124-2 0  9991
2 42759  43.0105 349.1575 0018398 199.5563 160.4594 15.54261756432395
CAS-4A (ZHUHAI-1 01)
1 42761U 17034D   25095.38959264  .00088946  00000-0  12717-2 0  9997
2 42761  43.0140 345.6698 0019861 205.3936 154.5951 15.55007899432444
EAGLESAT-1
1 43018U 17073F   25094.82359724  .00093603  00000-0  21658-2 0  9999
2 43018  97.5499 346.3498 0101510 331.8495  27.7282 15.36830670400370
LUOJIA-1 01
1 43485U 18048B   25095.51607552  .00006338  00000-0  75239-3 0  9996
2 43485  97.8440 175.5264 0010865 116.4982 243.7348 14.84771689369193
DIWATA-2B (PO-101)
1 43678U 18084H   25095.53523670  .00005858  00000-0  50250-3 0  9992
2 43678  98.0990 269.2066 0008878 141.8368 218.3483 14.97879690350645
ESHAIL-2
1 43700U 18090A   25095.50253081  .00000128  00000-0  00000+0 0  9997
2 43700   0.0021 165.6051 0001385 235.9722 359.1745  1.00269974 23535
K2SAT
1 43761U 18099D   25095.07341332  .00006276  00000-0  46025-3 0  9993
2 43761  97.4787 146.1391 0013172  47.7980 312.4362 15.03778820346206
AISTECHSAT-2
1 43768U 18099L   25095.12078745  .00011472  00000-0  72048-3 0  9999
2 43768  97.4904 147.9060 0005487  29.9599 330.1943 15.09416525346067
SNUSAT-2
1 43782U 18099AA  25094.71378208  .00015751  00000-0  88759-3 0  9996
2 43782  97.4667 150.8473 0012549  28.5708 331.6208 15.13217036346537
ITASAT-1
1 43786U 18099AE  25094.71656985  .00013178  00000-0  77323-3 0  9997
2 43786  97.4640 150.5439 0016017  77.2023 283.0996 15.11759619346503
IRVINE02
1 43789U 18099AH  25095.12165441  .00053132  00000-0  16797-2 0  9999
2 43789  97.4721 162.1783 0008918  21.0392 339.1215 15.32578599346960
EAGLET-1
1 43790U 18099AJ  25094.69173557  .00009351  00000-0  60579-3 0  9991
2 43790  97.4844 150.6768 0013397  60.6753 299.5812 15.08268962346134
ESEO
1 43792U 18099AL  25094.73513413  .00004037  00000-0  30975-3 0  9990
2 43792  97.4580 144.8414 0012553  37.1343 323.0749 15.02271016345930
CSIM-FD
1 43793U 18099AM  25095.50371230  .00149613  00000-0  22975-2 0  9996
2 43793  97.4905 169.4794 0003726 326.3108  33.7908 15.53737861347474
HIBER-2
1 43774U 18099S   25095.16372925  .00069429  00000-0  21729-2 0  9991
2 43774  97.4952 163.1201 0004751  19.1814 340.9605 15.32847815347148
MINXSS-2
1 43758U 18099A   25095.41719557  .00035460  00000-0  15001-2 0  9991
2 43758  97.5078 161.3381 0012136  32.3502 327.8476 15.23047641347044
FOX-1CLIFF (AO-95)
1 43770U 18099N   25095.12939679  .00022872  00000-0  12026-2 0  9999
2 43770  97.4988 153.9828 0012431  84.2459 276.0190 15.15606488346638
MOVE-II
1 43780U 18099Y   25095.46486546  .00165593  00000-0  25794-2 0  9991
2 43780  97.4717 167.3060 0000428 329.2212  30.9016 15.53288646347626
CORVUS-BC4
1 43767U 18099K   25095.12272898  .00009998  00000-0  66023-3 0  9999
2 43767  97.4673 145.7493 0010891  73.9166 286.3261 15.07568900346292
CZ-4B R/B
1 43656U 18081B   25095.15210655  .00000470  00000-0  15633-3 0  9990
2 43656  99.4066 332.6281 0206320  87.8716 274.6074 14.31603853336629
COSMOS 2504 [i]
1 40555U 15020D   25095.53558724  .00000569  00000-0  20471-3 0  9994
2 40555  82.5198 209.4414 0609729  23.7267 339.0762 13.60993210490656
MERIDIAN-4
1 37398U 11018A   25095.13985730 -.00000538  00000-0  00000+0 0  9994
2 37398  62.1433 143.8989 7320343 260.2369  17.9288  2.00629758101986
MERIDIAN-6
1 38995U 12063A   25095.47469568  .00000663  00000-0  00000+0 0  9990
2 38995  64.8306  55.0437 7224920 232.4840  37.8656  2.00623164 90767
MERIDIAN-7
1 40296U 14069A   25094.51161263  .00000134  00000-0  00000-0 0  9994
2 40296  63.4961 261.0884 6862848 272.7332  16.9690  2.00598222 76430
METOP-C
1 43689U 18087A   25095.46465568  .00000321  00000-0  16668-3 0  9995
2 43689  98.6800 156.6960 0001099  36.1904 323.9348 14.21506389332647
FENGYUN-3B
1 37214U 10059A   25095.55439181  .00000207  00000-0  13120-3 0  9998
2 37214  99.0212 133.2869 0021795 348.9615 167.5195 14.14707987745585
FENGYUN-3C
1 39260U 13052A   25095.55121779  .00000295  00000-0  17153-3 0  9995
2 39260  98.4520  85.8673 0014234 199.3250 160.7387 14.15599181596714
EWS-G1 (GOES-13)
1 29155U 06018A   25094.72516927  .00000026  00000-0  00000-0 0  9994
2 29155   3.3907  81.7476 0065699 263.3404 334.2402  0.98829671 38915
FENGYUN-2H
1 43491U 18050A   25095.12471487 -.00000144  00000-0  00000+0 0  9999
2 43491   1.9017  84.1874 0000798 178.8928  54.7667  1.00273438 25112
FENGYUN-2G
1 40367U 14090A   25094.98591537 -.00000314  00000-0  00000+0 0  9999
2 40367   4.5266  78.1123 0002197 125.5690  84.2609  1.00270186 37648
INMARSAT 4-F1
1 28628U 05009A   25095.31529462  .00000019  00000-0  00000+0 0  9992
2 28628   4.6086  42.0773 0002710 350.4454  92.9176  1.00272300 73278
INMARSAT 4-F2
1 28899U 05044A   25095.28031759 -.00000274  00000-0  00000+0 0  9998
2 28899   4.5343  43.3552 0002576 342.3734  52.4999  1.00270978 71117
INMARSAT 4-F3
1 33278U 08039A   25095.41155836 -.00000154  00000-0  00000+0 0  9997
2 33278   3.9327  29.4993 0002864 351.4638 223.1426  1.00272792 60876
INMARSAT 4A-F4 (ALPHASAT)
1 39215U 13038A   25095.20669641  .00000120  00000-0  00000+0 0  9992
2 39215   2.9323   5.0705 0001790  31.9180 256.0323  1.00271612 42879
ASTROCAST
1 43798U 18099AS  25094.75137328  .00031382  00000-0  12197-2 0  9993
2 43798  97.4898 162.0184 0006996 354.7381   5.3783 15.25970644347127
JY1SAT (JO-97)
1 43803U 18099AX  25095.14659599  .00028007  00000-0  13436-2 0  9990
2 43803  97.4738 154.8695 0007591  26.4764 333.6856 15.18821745346837
SUOMI-100
1 43804U 18099AY  25094.73197957  .00018435  00000-0  94113-3 0  9996
2 43804  97.4800 153.9282 0012733  24.5296 335.6540 15.16690533346719
GEO-KOMPSAT-2A
1 43823U 18100A   25094.81016858 -.00000359  00000-0  00000+0 0  9994
2 43823   0.0470  38.3713 0001700  20.0326 194.8718  1.00270933 23265
UWE-4
1 43880U 18111E   25095.17797567  .00037153  00000-0  15594-2 0  9990
2 43880  97.5928   7.1651 0015186  81.7307 278.5651 15.23265908341667
D-STAR ONE SPARROW
1 43881U 18111F   25095.18956365  .00047741  00000-0  17598-2 0  9995
2 43881  97.6118  10.9137 0010218 103.7875 256.4501 15.27602933341797
METEOR M2-2
1 44387U 19038A   25095.51229986  .00000325  00000-0  16077-3 0  9994
2 44387  98.8696  72.5720 0001307 146.9298 213.1962 14.24179921298998
MOMENTUS-X1
1 44408U 19038Y   25095.54766441  .00031380  00000-0  75884-3 0  9999
2 44408  97.7236 104.5591 0014521 155.6267 204.5668 15.40978761318681
MERIDIAN-8
1 44453U 19046A   25094.07697111  .00000147  00000-0  00000-0 0  9994
2 44453  62.7950 104.8372 6898375 273.7213  16.4335  2.00603760 41536
TAURUS-1
1 44530U 19059C   25095.44674645  .00019215  00000-0  36201-2 0  9993
2 44530  98.5976 231.8321 0010277 229.7623 130.2680 14.64545055294408
GAOFEN 12-01
1 44819U 19082A   25095.52066076  .00001153  00000-0  15802-3 0  9998
2 44819  97.8173 108.3477 0002800  23.6788 336.4553 14.80294769289331
DUCHIFAT-3
1 44854U 19089C   25095.55287893  .00068013  00000-0  16529-2 0  9993
2 44854  36.9467  46.7897 0003352 319.3958  40.6546 15.39899390292895
CAS-6 (TO-108)
1 44881U 19093C   25095.49233189  .00002779  00000-0  32818-3 0  9997
2 44881  97.7948 172.5024 0015302  86.5014 273.7951 14.85401788286418
ELEKTRO-L3
1 44903U 19095A   25095.12410671 -.00000113  00000-0  00000+0 0  9992
2 44903   0.0669 312.8869 0000811  33.8028 327.6991  1.00271504 19292
DOSAAF-85 (RS-44)
1 44909U 19096E   25094.72684951  .00000033  00000-0  77786-4 0  9998
2 44909  82.5166 271.0379 0218472  89.5954 273.0176 12.79739851246267
MERIDIAN-9
1 45254U 20015A   25094.79887106 -.00000066  00000-0  00000+0 0  9996
2 45254  65.1811   7.0543 6952801 284.8661  12.7241  2.00617831 37510
ION-MK01
1 46274U 20061C   25094.73903781  .00044865  00000-0  88195-3 0  9991
2 46274  97.2519 162.1375 0004378 120.7363 239.4319 15.47146086254786
UPMSAT-2
1 46276U 20061E   25095.18208089  .00094190  00000-0  11788-2 0  9991
2 46276  97.2509 167.7824 0001875 150.2257 209.9107 15.59483029255249
DEKART
1 46493U 20068H   25095.50181722  .00021277  00000-0  84192-3 0  9995
2 46493  97.8541  73.1834 0013104  35.8674 324.3440 15.25402245248790
NORBY
1 46494U 20068J   25095.18464698  .00031377  00000-0  10944-2 0  9991
2 46494  97.8526  75.0040 0011753  32.9808 327.2162 15.29501895248887
SALSAT (TUBSAT 22)
1 46495U 20068K   25094.48491232  .00015836  00000-0  70707-3 0  9994
2 46495  97.8564  69.5401 0013079  40.5157 319.7049 15.21381554248479
NETSAT-4
1 46504U 20068U   25095.44307629  .00029789  00000-0  10894-2 0  9990
2 46504  97.8417  69.7177 0010545  76.7939 283.4474 15.27973527248598
NETSAT-3
1 46505U 20068V   25095.44156597  .00026689  00000-0  10145-2 0  9992
2 46505  97.8411  68.8051 0010089  84.7211 275.5177 15.26723534248568
NETSAT-1
1 46506U 20068W   25095.16934113  .00022251  00000-0  96043-3 0  9993
2 46506  97.8439  66.7979 0009389  95.1347 265.0960 15.22497651248403
NETSAT-2
1 46507U 20068X   25095.48326974  .00028604  00000-0  10568-2 0  9994
2 46507  97.8412  69.2866 0008580  96.9359 263.2855 15.27663052248545
ARKTIKA-M1
1 47719U 21016A   25095.35200869  .00000025  00000-0  00000+0 0  9998
2 47719  63.1400 116.9192 7071838 268.5416  16.8943  2.00606849 30019
SIMBA
1 47941U 21022K   25095.54405012  .00047748  00000-0  11613-2 0  9998
2 47941  97.4285 358.7968 0010879 172.6545 187.4863 15.40759173223166
